CCSDS_OMM_VERS = 2.0
CREATION_DATE  = 
ORIGINATOR     = 

OBJECT_NAME    = ALOS (DAICHI)
OBJECT_ID      = 2006-002A
CENTER_NAME    = EARTH
REF_FRAME      = TEME
TIME_SYSTEM    = UTC
MEAN_ELEMENT_THEORY = SGP/SGP4

EPOCH          = 2026-02-09T10:54:13.753440
MEAN_MOTION    = 14.69715799
ECCENTRICITY   = .0001971
INCLINATION    = 98.1170
RA_OF_ASC_NODE = 356.5627
ARG_OF_PERICENTER = 64.5774
MEAN_ANOMALY   = 295.5635

EPHEMERIS_TYPE = 0
CLASSIFICATION_TYPE = U
NORAD_CAT_ID   = 28931
ELEMENT_SET_NO = 999
REV_AT_EPOCH   = 6933
BSTAR          = .31433E-3
MEAN_MOTION_DOT = .1823E-4
MEAN_MOTION_DDOT = 0

CCSDS_OMM_VERS = 2.0
CREATION_DATE  = 
ORIGINATOR     = 

OBJECT_NAME    = H-2A R/B
OBJECT_ID      = 2006-002B
CENTER_NAME    = EARTH
REF_FRAME      = TEME
TIME_SYSTEM    = UTC
MEAN_ELEMENT_THEORY = SGP/SGP4

EPOCH          = 2026-02-09T08:40:24.542688
MEAN_MOTION    = 15.15846943
ECCENTRICITY   = .0052784
INCLINATION    = 98.2360
RA_OF_ASC_NODE = 184.9729
ARG_OF_PERICENTER = 338.7408
MEAN_ANOMALY   = 21.1628

EPHEMERIS_TYPE = 0
CLASSIFICATION_TYPE = U
NORAD_CAT_ID   = 28932
ELEMENT_SET_NO = 999
REV_AT_EPOCH   = 9014
BSTAR          = .46368E-3
MEAN_MOTION_DOT = .9109E-4
MEAN_MOTION_DDOT = 0

CCSDS_OMM_VERS = 2.0
CREATION_DATE  = 
ORIGINATOR     = 

OBJECT_NAME    = RESURS-DK 1
OBJECT_ID      = 2006-021A
CENTER_NAME    = EARTH
REF_FRAME      = TEME
TIME_SYSTEM    = UTC
MEAN_ELEMENT_THEORY = SGP/SGP4

EPOCH          = 2026-02-09T03:59:52.860192
MEAN_MOTION    = 15.12577967
ECCENTRICITY   = .0004574
INCLINATION    = 69.9346
RA_OF_ASC_NODE = 310.7957
ARG_OF_PERICENTER = 204.7790
MEAN_ANOMALY   = 155.3157

EPHEMERIS_TYPE = 0
CLASSIFICATION_TYPE = U
NORAD_CAT_ID   = 29228
ELEMENT_SET_NO = 999
REV_AT_EPOCH   = 8321
BSTAR          = .19244E-3
MEAN_MOTION_DOT = .3259E-4
MEAN_MOTION_DDOT = 0

CCSDS_OMM_VERS = 2.0
CREATION_DATE  = 
ORIGINATOR     = 

OBJECT_NAME    = CZ-4B R/B
OBJECT_ID      = 2006-046C
CENTER_NAME    = EARTH
REF_FRAME      = TEME
TIME_SYSTEM    = UTC
MEAN_ELEMENT_THEORY = SGP/SGP4

EPOCH          = 2026-02-09T02:37:06.910464
MEAN_MOTION    = 15.16593541
ECCENTRICITY   = .00336285
INCLINATION    = 97.5654
RA_OF_ASC_NODE = 85.0925
ARG_OF_PERICENTER = 9.5359
MEAN_ANOMALY   = 350.6505

EPHEMERIS_TYPE = 0
CLASSIFICATION_TYPE = U
NORAD_CAT_ID   = 29507
ELEMENT_SET_NO = 999
REV_AT_EPOCH   = 5571
BSTAR          = .24291407E-3
MEAN_MOTION_DOT = .4742E-4
MEAN_MOTION_DDOT = 0

CCSDS_OMM_VERS = 2.0
CREATION_DATE  = 
ORIGINATOR     = 

OBJECT_NAME    = CZ-2C R/B
OBJECT_ID      = 2007-010B
CENTER_NAME    = EARTH
REF_FRAME      = TEME
TIME_SYSTEM    = UTC
MEAN_ELEMENT_THEORY = SGP/SGP4

EPOCH          = 2026-02-09T08:01:35.272128
MEAN_MOTION    = 14.20236247
ECCENTRICITY   = .0059262
INCLINATION    = 98.3970
RA_OF_ASC_NODE = 155.0371
ARG_OF_PERICENTER = 17.7665
MEAN_ANOMALY   = 342.5566

EPHEMERIS_TYPE = 0
CLASSIFICATION_TYPE = U
NORAD_CAT_ID   = 31114
ELEMENT_SET_NO = 999
REV_AT_EPOCH   = 97569
BSTAR          = .82268E-4
MEAN_MOTION_DOT = .138E-5
MEAN_MOTION_DDOT = 0

CCSDS_OMM_VERS = 2.0
CREATION_DATE  = 
ORIGINATOR     = 

OBJECT_NAME    = COSMO-SKYMED 1
OBJECT_ID      = 2007-023A
CENTER_NAME    = EARTH
REF_FRAME      = TEME
TIME_SYSTEM    = UTC
MEAN_ELEMENT_THEORY = SGP/SGP4

EPOCH          = 2026-02-09T12:19:01.642080
MEAN_MOTION    = 14.96309247
ECCENTRICITY   = .0000849
INCLINATION    = 97.8857
RA_OF_ASC_NODE = 231.3247
ARG_OF_PERICENTER = 80.8462
MEAN_ANOMALY   = 279.2855

EPHEMERIS_TYPE = 0
CLASSIFICATION_TYPE = U
NORAD_CAT_ID   = 31598
ELEMENT_SET_NO = 999
REV_AT_EPOCH   = 1069
BSTAR          = .3578E-3
MEAN_MOTION_DOT = .3986E-4
MEAN_MOTION_DDOT = 0

CCSDS_OMM_VERS = 2.0
CREATION_DATE  = 
ORIGINATOR     = 

OBJECT_NAME    = COSMOS 2428
OBJECT_ID      = 2007-029A
CENTER_NAME    = EARTH
REF_FRAME      = TEME
TIME_SYSTEM    = UTC
MEAN_ELEMENT_THEORY = SGP/SGP4

EPOCH          = 2026-02-09T01:48:01.336608
MEAN_MOTION    = 14.12933085
ECCENTRICITY   = .00073392
INCLINATION    = 70.9396
RA_OF_ASC_NODE = 263.4100
ARG_OF_PERICENTER = 308.5248
MEAN_ANOMALY   = 51.5214

EPHEMERIS_TYPE = 0
CLASSIFICATION_TYPE = U
NORAD_CAT_ID   = 31792
ELEMENT_SET_NO = 999
REV_AT_EPOCH   = 96005
BSTAR          = .19476296E-3
MEAN_MOTION_DOT = .315E-5
MEAN_MOTION_DDOT = 0

CCSDS_OMM_VERS = 2.0
CREATION_DATE  = 
ORIGINATOR     = 

OBJECT_NAME    = SL-16 R/B
OBJECT_ID      = 2007-029B
CENTER_NAME    = EARTH
REF_FRAME      = TEME
TIME_SYSTEM    = UTC
MEAN_ELEMENT_THEORY = SGP/SGP4

EPOCH          = 2026-02-09T11:41:56.588928
MEAN_MOTION    = 14.14832651
ECCENTRICITY   = .0001975
INCLINATION    = 70.9735
RA_OF_ASC_NODE = 231.6660
ARG_OF_PERICENTER = 278.1487
MEAN_ANOMALY   = 101.9110

EPHEMERIS_TYPE = 0
CLASSIFICATION_TYPE = U
NORAD_CAT_ID   = 31793
ELEMENT_SET_NO = 999
REV_AT_EPOCH   = 96138
BSTAR          = .23107E-3
MEAN_MOTION_DOT = .398E-5
MEAN_MOTION_DDOT = 0

CCSDS_OMM_VERS = 2.0
CREATION_DATE  = 
ORIGINATOR     = 

OBJECT_NAME    = KORONAS-FOTON
OBJECT_ID      = 2009-003A
CENTER_NAME    = EARTH
REF_FRAME      = TEME
TIME_SYSTEM    = UTC
MEAN_ELEMENT_THEORY = SGP/SGP4

EPOCH          = 2026-02-09T05:29:23.190432
MEAN_MOTION    = 15.42567366
ECCENTRICITY   = .0008938
INCLINATION    = 82.4317
RA_OF_ASC_NODE = 305.4475
ARG_OF_PERICENTER = 259.3060
MEAN_ANOMALY   = 100.7181

EPHEMERIS_TYPE = 0
CLASSIFICATION_TYPE = U
NORAD_CAT_ID   = 33504
ELEMENT_SET_NO = 999
REV_AT_EPOCH   = 94135
BSTAR          = .25878E-3
MEAN_MOTION_DOT = .11292E-3
MEAN_MOTION_DDOT = 0

CCSDS_OMM_VERS = 2.0
CREATION_DATE  = 
ORIGINATOR     = 

OBJECT_NAME    = CZ-2C R/B
OBJECT_ID      = 2011-030B
CENTER_NAME    = EARTH
REF_FRAME      = TEME
TIME_SYSTEM    = UTC
MEAN_ELEMENT_THEORY = SGP/SGP4

EPOCH          = 2026-02-09T10:51:04.281696
MEAN_MOTION    = 14.81112276
ECCENTRICITY   = .0054234
INCLINATION    = 97.8495
RA_OF_ASC_NODE = 358.2935
ARG_OF_PERICENTER = 82.4178
MEAN_ANOMALY   = 37.1717

EPHEMERIS_TYPE = 0
CLASSIFICATION_TYPE = U
NORAD_CAT_ID   = 37731
ELEMENT_SET_NO = 999
REV_AT_EPOCH   = 78591
BSTAR          = .23737E-3
MEAN_MOTION_DOT = .1837E-4
MEAN_MOTION_DDOT = 0

CCSDS_OMM_VERS = 2.0
CREATION_DATE  = 
ORIGINATOR     = 

OBJECT_NAME    = H-2A R/B
OBJECT_ID      = 2012-025E
CENTER_NAME    = EARTH
REF_FRAME      = TEME
TIME_SYSTEM    = UTC
MEAN_ELEMENT_THEORY = SGP/SGP4

EPOCH          = 2026-02-09T11:38:06.948960
MEAN_MOTION    = 14.94916398
ECCENTRICITY   = .0045745
INCLINATION    = 98.4677
RA_OF_ASC_NODE = 5.2913
ARG_OF_PERICENTER = 46.1266
MEAN_ANOMALY   = 314.3716

EPHEMERIS_TYPE = 0
CLASSIFICATION_TYPE = U
NORAD_CAT_ID   = 38341
ELEMENT_SET_NO = 999
REV_AT_EPOCH   = 74400
BSTAR          = .38105E-3
MEAN_MOTION_DOT = .4176E-4
MEAN_MOTION_DDOT = 0

CCSDS_OMM_VERS = 2.0
CREATION_DATE  = 
ORIGINATOR     = 

OBJECT_NAME    = SHIJIAN-16 (SJ-16)
OBJECT_ID      = 2013-057A
CENTER_NAME    = EARTH
REF_FRAME      = TEME
TIME_SYSTEM    = UTC
MEAN_ELEMENT_THEORY = SGP/SGP4

EPOCH          = 2026-02-09T12:55:28.383744
MEAN_MOTION    = 14.92241461
ECCENTRICITY   = .0016767
INCLINATION    = 74.9705
RA_OF_ASC_NODE = 238.3772
ARG_OF_PERICENTER = 182.9301
MEAN_ANOMALY   = 177.1792

EPHEMERIS_TYPE = 0
CLASSIFICATION_TYPE = U
NORAD_CAT_ID   = 39358
ELEMENT_SET_NO = 999
REV_AT_EPOCH   = 66730
BSTAR          = .1138E-3
MEAN_MOTION_DOT = .1134E-4
MEAN_MOTION_DDOT = 0

